STARLINK-30993          
1 58489U 23186S   26068.02351268  .00005829  00000+0  22129-3 0  9995
2 58489  43.0032  67.4606 0001811 277.2444  82.8202 15.27561669125781
FLOCK 4G-25             
1 62646U 25009AP  26068.74572546  .00010373  00000+0  38902-3 0  9990
2 62646  97.4049 151.4141 0000828 316.3151  43.8023 15.27424196 63734
